COSMOS 2588             
1 64095U 25109A   26068.81179522  .00009169  00000+0  32611-3 0  9998
2 64095  72.9704  73.5401 0005019 308.6780  51.3966 15.29122656 44425
STARLINK-35519          
1 65919U 25225K   26068.56082691  .00022007  00000+0  75334-3 0  9990
2 65919  53.1573 165.9062 0001012  85.3609 274.7507 15.30182599 24393
